STARLINK-36092          
1 66869U 25281X   25362.83334491 -.00070429  00000+0 -12050-2 0  9999
2 66869  43.0009  25.4430 0001340 270.9956 250.7939 15.50591271  4002
STARLINK-36114          
1 66870U 25281Y   25362.83334491 -.00088204  00000+0 -15136-2 0  9999
2 66870  43.0009  25.4383 0001224 275.0295 248.6777 15.50599717  3877
STARLINK-36095          
1 66871U 25281Z   25362.83334491 -.00080274  00000+0 -13757-2 0  9996
2 66871  43.0008  25.4331 0001038 276.8215 248.8021 15.50596473  4000
STARLINK-36082          
1 66872U 25281AA  25362.83334491 -.00090293  00000+0 -15498-2 0  9993
2 66872  43.0010  25.4282 0001306 273.5829 253.9549 15.50601199  3870
STARLINK-36128          
1 66873U 25281AB  25362.83334491 -.00099255  00000+0 -17058-2 0  9995
2 66873  43.0009  25.4125 0001213 271.6880 261.6009 15.50608081  4008
STARLINK-36129          
1 66874U 25281AC  25362.83334491  .00066364  00000+0  11307-2 0  9990
2 66874  43.0009  25.4228 0001310 256.0277 273.4907 15.50498675  4002
STARLINK-36053          
1 66875U 25281AD  25362.83334491 -.00093018  00000+0 -15973-2 0  9992
2 66875  43.0010  25.4077 0001247 272.5179 262.6906 15.50601848  4007
STARLINK-35702          
1 66876U 25281AE  25362.83334491 -.00064334  00000+0 -10995-2 0  9991
2 66876  43.0009  25.4183 0001250 271.0591 260.3172 15.50587432  4002
ZQ-3 R/B                
1 66877U 25282A   25362.26315973  .01047609  80498-5  16749-3 0  9998
2 66877  56.9489 356.8194 0648505 247.5169 105.5986 14.91153593  3687
STARLINK-35866          
1 66878U 25283A   25362.83334491  .00077521  00000+0  13884-2 0  9995
2 66878  53.1598 354.2017 0002288  89.4436 243.3962 15.49301859  5014
STARLINK-35749          
1 66879U 25283B   25362.83334491 -.00023301  00000+0 -41224-3 0  9995
2 66879  53.1597 354.1931 0001508  90.2618 246.5297 15.49300137  5018
STARLINK-35844          
1 66880U 25283C   25362.83334491 -.00059417  00000+0 -10674-2 0  9998
2 66880  53.1598 354.1980 0001964  95.3825 239.4613 15.49332965  5014
