CCSDS_OMM_VERS = 2.0
CREATION_DATE  = 
ORIGINATOR     = 

OBJECT_NAME    = STARLINK-36092
OBJECT_ID      = 2025-281X
CENTER_NAME    = EARTH
REF_FRAME      = TEME
TIME_SYSTEM    = UTC
MEAN_ELEMENT_THEORY = SGP/SGP4

EPOCH          = 2025-12-28T20:00:01.000224
MEAN_MOTION    = 15.50591271
ECCENTRICITY   = .000134
INCLINATION    = 43.0009
RA_OF_ASC_NODE = 25.4430
ARG_OF_PERICENTER = 270.9956
MEAN_ANOMALY   = 250.7939

EPHEMERIS_TYPE = 0
CLASSIFICATION_TYPE = U
NORAD_CAT_ID   = 66869
ELEMENT_SET_NO = 999
REV_AT_EPOCH   = 400
BSTAR          = -.1205E-2
MEAN_MOTION_DOT = -.70429E-3
MEAN_MOTION_DDOT = 0

CCSDS_OMM_VERS = 2.0
CREATION_DATE  = 
ORIGINATOR     = 

OBJECT_NAME    = STARLINK-36114
OBJECT_ID      = 2025-281Y
CENTER_NAME    = EARTH
REF_FRAME      = TEME
TIME_SYSTEM    = UTC
MEAN_ELEMENT_THEORY = SGP/SGP4

EPOCH          = 2025-12-28T20:00:01.000224
MEAN_MOTION    = 15.50599717
ECCENTRICITY   = .0001224
INCLINATION    = 43.0009
RA_OF_ASC_NODE = 25.4383
ARG_OF_PERICENTER = 275.0295
MEAN_ANOMALY   = 248.6777

EPHEMERIS_TYPE = 0
CLASSIFICATION_TYPE = U
NORAD_CAT_ID   = 66870
ELEMENT_SET_NO = 999
REV_AT_EPOCH   = 387
BSTAR          = -.15136E-2
MEAN_MOTION_DOT = -.88204E-3
MEAN_MOTION_DDOT = 0

CCSDS_OMM_VERS = 2.0
CREATION_DATE  = 
ORIGINATOR     = 

OBJECT_NAME    = STARLINK-36095
OBJECT_ID      = 2025-281Z
CENTER_NAME    = EARTH
REF_FRAME      = TEME
TIME_SYSTEM    = UTC
MEAN_ELEMENT_THEORY = SGP/SGP4

EPOCH          = 2025-12-28T20:00:01.000224
MEAN_MOTION    = 15.50596473
ECCENTRICITY   = .0001038
INCLINATION    = 43.0008
RA_OF_ASC_NODE = 25.4331
ARG_OF_PERICENTER = 276.8215
MEAN_ANOMALY   = 248.8021

EPHEMERIS_TYPE = 0
CLASSIFICATION_TYPE = U
NORAD_CAT_ID   = 66871
ELEMENT_SET_NO = 999
REV_AT_EPOCH   = 400
BSTAR          = -.13757E-2
MEAN_MOTION_DOT = -.80274E-3
MEAN_MOTION_DDOT = 0

CCSDS_OMM_VERS = 2.0
CREATION_DATE  = 
ORIGINATOR     = 

OBJECT_NAME    = STARLINK-36082
OBJECT_ID      = 2025-281AA
CENTER_NAME    = EARTH
REF_FRAME      = TEME
TIME_SYSTEM    = UTC
MEAN_ELEMENT_THEORY = SGP/SGP4

EPOCH          = 2025-12-28T20:00:01.000224
MEAN_MOTION    = 15.50601199
ECCENTRICITY   = .0001306
INCLINATION    = 43.0010
RA_OF_ASC_NODE = 25.4282
ARG_OF_PERICENTER = 273.5829
MEAN_ANOMALY   = 253.9549

EPHEMERIS_TYPE = 0
CLASSIFICATION_TYPE = U
NORAD_CAT_ID   = 66872
ELEMENT_SET_NO = 999
REV_AT_EPOCH   = 387
BSTAR          = -.15498E-2
MEAN_MOTION_DOT = -.90293E-3
MEAN_MOTION_DDOT = 0

CCSDS_OMM_VERS = 2.0
CREATION_DATE  = 
ORIGINATOR     = 

OBJECT_NAME    = STARLINK-36128
OBJECT_ID      = 2025-281AB
CENTER_NAME    = EARTH
REF_FRAME      = TEME
TIME_SYSTEM    = UTC
MEAN_ELEMENT_THEORY = SGP/SGP4

EPOCH          = 2025-12-28T20:00:01.000224
MEAN_MOTION    = 15.50608081
ECCENTRICITY   = .0001213
INCLINATION    = 43.0009
RA_OF_ASC_NODE = 25.4125
ARG_OF_PERICENTER = 271.6880
MEAN_ANOMALY   = 261.6009

EPHEMERIS_TYPE = 0
CLASSIFICATION_TYPE = U
NORAD_CAT_ID   = 66873
ELEMENT_SET_NO = 999
REV_AT_EPOCH   = 400
BSTAR          = -.17058E-2
MEAN_MOTION_DOT = -.99255E-3
MEAN_MOTION_DDOT = 0

CCSDS_OMM_VERS = 2.0
CREATION_DATE  = 
ORIGINATOR     = 

OBJECT_NAME    = STARLINK-36129
OBJECT_ID      = 2025-281AC
CENTER_NAME    = EARTH
REF_FRAME      = TEME
TIME_SYSTEM    = UTC
MEAN_ELEMENT_THEORY = SGP/SGP4

EPOCH          = 2025-12-28T20:00:01.000224
MEAN_MOTION    = 15.50498675
ECCENTRICITY   = .000131
INCLINATION    = 43.0009
RA_OF_ASC_NODE = 25.4228
ARG_OF_PERICENTER = 256.0277
MEAN_ANOMALY   = 273.4907

EPHEMERIS_TYPE = 0
CLASSIFICATION_TYPE = U
NORAD_CAT_ID   = 66874
ELEMENT_SET_NO = 999
REV_AT_EPOCH   = 400
BSTAR          = .11307E-2
MEAN_MOTION_DOT = .66364E-3
MEAN_MOTION_DDOT = 0

CCSDS_OMM_VERS = 2.0
CREATION_DATE  = 
ORIGINATOR     = 

OBJECT_NAME    = STARLINK-36053
OBJECT_ID      = 2025-281AD
CENTER_NAME    = EARTH
REF_FRAME      = TEME
TIME_SYSTEM    = UTC
MEAN_ELEMENT_THEORY = SGP/SGP4

EPOCH          = 2025-12-28T20:00:01.000224
MEAN_MOTION    = 15.50601848
ECCENTRICITY   = .0001247
INCLINATION    = 43.0010
RA_OF_ASC_NODE = 25.4077
ARG_OF_PERICENTER = 272.5179
MEAN_ANOMALY   = 262.6906

EPHEMERIS_TYPE = 0
CLASSIFICATION_TYPE = U
NORAD_CAT_ID   = 66875
ELEMENT_SET_NO = 999
REV_AT_EPOCH   = 400
BSTAR          = -.15973E-2
MEAN_MOTION_DOT = -.93018E-3
MEAN_MOTION_DDOT = 0

CCSDS_OMM_VERS = 2.0
CREATION_DATE  = 
ORIGINATOR     = 

OBJECT_NAME    = STARLINK-35702
OBJECT_ID      = 2025-281AE
CENTER_NAME    = EARTH
REF_FRAME      = TEME
TIME_SYSTEM    = UTC
MEAN_ELEMENT_THEORY = SGP/SGP4

EPOCH          = 2025-12-28T20:00:01.000224
MEAN_MOTION    = 15.50587432
ECCENTRICITY   = .000125
INCLINATION    = 43.0009
RA_OF_ASC_NODE = 25.4183
ARG_OF_PERICENTER = 271.0591
MEAN_ANOMALY   = 260.3172

EPHEMERIS_TYPE = 0
CLASSIFICATION_TYPE = U
NORAD_CAT_ID   = 66876
ELEMENT_SET_NO = 999
REV_AT_EPOCH   = 400
BSTAR          = -.10995E-2
MEAN_MOTION_DOT = -.64334E-3
MEAN_MOTION_DDOT = 0

CCSDS_OMM_VERS = 2.0
CREATION_DATE  = 
ORIGINATOR     = 

OBJECT_NAME    = ZQ-3 R/B
OBJECT_ID      = 2025-282A
CENTER_NAME    = EARTH
REF_FRAME      = TEME
TIME_SYSTEM    = UTC
MEAN_ELEMENT_THEORY = SGP/SGP4

EPOCH          = 2025-12-28T06:18:57.000672
MEAN_MOTION    = 14.91153593
ECCENTRICITY   = .06485056
INCLINATION    = 56.9489
RA_OF_ASC_NODE = 356.8194
ARG_OF_PERICENTER = 247.5169
MEAN_ANOMALY   = 105.5986

EPHEMERIS_TYPE = 0
CLASSIFICATION_TYPE = U
NORAD_CAT_ID   = 66877
ELEMENT_SET_NO = 999
REV_AT_EPOCH   = 368
BSTAR          = .16748733E-3
MEAN_MOTION_DOT = .1047609E-1
MEAN_MOTION_DDOT = .8049764E-5

CCSDS_OMM_VERS = 2.0
CREATION_DATE  = 
ORIGINATOR     = 

OBJECT_NAME    = STARLINK-35866
OBJECT_ID      = 2025-283A
CENTER_NAME    = EARTH
REF_FRAME      = TEME
TIME_SYSTEM    = UTC
MEAN_ELEMENT_THEORY = SGP/SGP4

EPOCH          = 2025-12-28T20:00:01.000224
MEAN_MOTION    = 15.49301859
ECCENTRICITY   = .0002288
INCLINATION    = 53.1598
RA_OF_ASC_NODE = 354.2017
ARG_OF_PERICENTER = 89.4436
MEAN_ANOMALY   = 243.3962

EPHEMERIS_TYPE = 0
CLASSIFICATION_TYPE = U
NORAD_CAT_ID   = 66878
ELEMENT_SET_NO = 999
REV_AT_EPOCH   = 501
BSTAR          = .13884E-2
MEAN_MOTION_DOT = .77521E-3
MEAN_MOTION_DDOT = 0

CCSDS_OMM_VERS = 2.0
CREATION_DATE  = 
ORIGINATOR     = 

OBJECT_NAME    = STARLINK-35749
OBJECT_ID      = 2025-283B
CENTER_NAME    = EARTH
REF_FRAME      = TEME
TIME_SYSTEM    = UTC
MEAN_ELEMENT_THEORY = SGP/SGP4

EPOCH          = 2025-12-28T20:00:01.000224
MEAN_MOTION    = 15.49300137
ECCENTRICITY   = .0001508
INCLINATION    = 53.1597
RA_OF_ASC_NODE = 354.1931
ARG_OF_PERICENTER = 90.2618
MEAN_ANOMALY   = 246.5297

EPHEMERIS_TYPE = 0
CLASSIFICATION_TYPE = U
NORAD_CAT_ID   = 66879
ELEMENT_SET_NO = 999
REV_AT_EPOCH   = 501
BSTAR          = -.41224E-3
MEAN_MOTION_DOT = -.23301E-3
MEAN_MOTION_DDOT = 0

CCSDS_OMM_VERS = 2.0
CREATION_DATE  = 
ORIGINATOR     = 

OBJECT_NAME    = STARLINK-35844
OBJECT_ID      = 2025-283C
CENTER_NAME    = EARTH
REF_FRAME      = TEME
TIME_SYSTEM    = UTC
MEAN_ELEMENT_THEORY = SGP/SGP4

EPOCH          = 2025-12-28T20:00:01.000224
MEAN_MOTION    = 15.49332965
ECCENTRICITY   = .0001964
INCLINATION    = 53.1598
RA_OF_ASC_NODE = 354.1980
ARG_OF_PERICENTER = 95.3825
MEAN_ANOMALY   = 239.4613

EPHEMERIS_TYPE = 0
CLASSIFICATION_TYPE = U
NORAD_CAT_ID   = 66880
ELEMENT_SET_NO = 999
REV_AT_EPOCH   = 501
BSTAR          = -.10674E-2
MEAN_MOTION_DOT = -.59417E-3
MEAN_MOTION_DDOT = 0

